{
  "type": "FeatureCollection",
  "features": [
    {
      "type": "Feature",
      "properties": {
        "norad_id": 41018,
        "name": "FENGYUN 1C DEB",
        "group": "fengyun-1c-debris",
        "lat": -39.30586348233115,
        "lon": 99.83674417320634,
        "alt_km": 1077.3088402741769,
        "timestamp": "2025-12-09T16:56:36.865044+00:00",
        "meta_object_name": "FENGYUN 1C DEB",
        "meta_object_id": "1999-025EXY",
        "meta_epoch": "2025-12-06T02:39:35.618688",
        "meta_mean_motion": 13.52334153,
        "meta_eccentricity": 0.0303705,
        "meta_inclination": 99.9355,
        "meta_ra_of_asc_node": 284.4824,
        "meta_arg_of_pericenter": 135.2291,
        "meta_mean_anomaly": 227.3789,
        "meta_ephemeris_type": 0,
        "meta_classification_type": "U",
        "meta_norad_cat_id": 41018,
        "meta_element_set_no": 999,
        "meta_rev_at_epoch": 88085,
        "meta_bstar": 0.0022581,
        "meta_mean_motion_dot": 1.949e-05,
        "meta_mean_motion_ddot": 0,
        "tle_line1": "1 41018U 99025EXY 25340.11082892  .00001949  00000+0  22581-2 0  9996",
        "tle_line2": "2 41018  99.9355 284.4824 0303705 135.2291 227.3789 13.52334153880856"
      },
      "geometry": {
        "type": "Point",
        "coordinates": [
          99.83674417320634,
          -39.30586348233115
        ]
      }
    },
    {
      "type": "Feature",
      "properties": {
        "norad_id": 41822,
        "name": "FENGYUN 1C DEB",
        "group": "fengyun-1c-debris",
        "lat": -6.994126424656128,
        "lon": -131.1490526123437,
        "alt_km": 783.5739866781842,
        "timestamp": "2025-12-09T16:56:36.865055+00:00",
        "meta_object_name": "FENGYUN 1C DEB",
        "meta_object_id": "1999-025EXZ",
        "meta_epoch": "2025-12-07T15:11:10.613472",
        "meta_mean_motion": 14.24742013,
        "meta_eccentricity": 0.0055132,
        "meta_inclination": 98.7319,
        "meta_ra_of_asc_node": 47.8699,
        "meta_arg_of_pericenter": 235.1055,
        "meta_mean_anomaly": 124.4935,
        "meta_ephemeris_type": 0,
        "meta_classification_type": "U",
        "meta_norad_cat_id": 41822,
        "meta_element_set_no": 999,
        "meta_rev_at_epoch": 47300,
        "meta_bstar": 0.0027484283,
        "meta_mean_motion_dot": 6.463e-05,
        "meta_mean_motion_ddot": 0,
        "tle_line1": "1 41822U 99025EXZ 25341.63276173  .00006463  00000+0  27484-2 0  9997",
        "tle_line2": "2 41822  98.7319  47.8699 0055132 235.1055 124.4935 14.24742013473006"
      },
      "geometry": {
        "type": "Point",
        "coordinates": [
          -131.1490526123437,
          -6.994126424656128
        ]
      }
    },
    {
      "type": "Feature",
      "properties": {
        "norad_id": 41823,
        "name": "FENGYUN 1C DEB",
        "group": "fengyun-1c-debris",
        "lat": -80.86553070168314,
        "lon": 119.70991349169724,
        "alt_km": 789.0649324303031,
        "timestamp": "2025-12-09T16:56:36.865065+00:00",
        "meta_object_name": "FENGYUN 1C DEB",
        "meta_object_id": "1999-025EYA",
        "meta_epoch": "2025-12-09T03:51:23.956416",
        "meta_mean_motion": 14.23480166,
        "meta_eccentricity": 0.00544661,
        "meta_inclination": 98.72,
        "meta_ra_of_asc_node": 46.5178,
        "meta_arg_of_pericenter": 238.5164,
        "meta_mean_anomaly": 121.0685,
        "meta_ephemeris_type": 0,
        "meta_classification_type": "U",
        "meta_norad_cat_id": 41823,
        "meta_element_set_no": 999,
        "meta_rev_at_epoch": 47307,
        "meta_bstar": 0.0018388953,
        "meta_mean_motion_dot": 4.202e-05,
        "meta_mean_motion_ddot": 0,
        "tle_line1": "1 41823U 99025EYA 25343.16069394  .00004202  00000+0  18389-2 0  9996",
        "tle_line2": "2 41823  98.7200  46.5178 0054466 238.5164 121.0685 14.23480166473070"
      },
      "geometry": {
        "type": "Point",
        "coordinates": [
          119.70991349169724,
          -80.86553070168314
        ]
      }
    },
    {
      "type": "Feature",
      "properties": {
        "norad_id": 41824,
        "name": "FENGYUN 1C DEB",
        "group": "fengyun-1c-debris",
        "lat": 49.3598733784244,
        "lon": -121.93544229854871,
        "alt_km": 818.1820486750821,
        "timestamp": "2025-12-09T16:56:36.865075+00:00",
        "meta_object_name": "FENGYUN 1C DEB",
        "meta_object_id": "1999-025EYB",
        "meta_epoch": "2025-12-09T02:50:27.962016",
        "meta_mean_motion": 14.24120805,
        "meta_eccentricity": 0.00571416,
        "meta_inclination": 98.7307,
        "meta_ra_of_asc_node": 47.1675,
        "meta_arg_of_pericenter": 237.714,
        "meta_mean_anomaly": 121.8495,
        "meta_ephemeris_type": 0,
        "meta_classification_type": "U",
        "meta_norad_cat_id": 41824,
        "meta_element_set_no": 999,
        "meta_rev_at_epoch": 47308,
        "meta_bstar": 0.002004357,
        "meta_mean_motion_dot": 4.649e-05,
        "meta_mean_motion_ddot": 0,
        "tle_line1": "1 41824U 99025EYB 25343.11837919  .00004649  00000+0  20044-2 0  9994",
        "tle_line2": "2 41824  98.7307  47.1675 0057141 237.7140 121.8495 14.24120805473086"
      },
      "geometry": {
        "type": "Point",
        "coordinates": [
          -121.93544229854871,
          49.3598733784244
        ]
      }
    },
    {
      "type": "Feature",
      "properties": {
        "norad_id": 41825,
        "name": "FENGYUN 1C DEB",
        "group": "fengyun-1c-debris",
        "lat": -15.838590175964507,
        "lon": 55.250800848637816,
        "alt_km": 829.6913228504982,
        "timestamp": "2025-12-09T16:56:36.865085+00:00",
        "meta_object_name": "FENGYUN 1C DEB",
        "meta_object_id": "1999-025EYC",
        "meta_epoch": "2025-12-09T03:32:17.389536",
        "meta_mean_motion": 14.25046246,
        "meta_eccentricity": 0.00555494,
        "meta_inclination": 98.7437,
        "meta_ra_of_asc_node": 52.192,
        "meta_arg_of_pericenter": 230.7898,
        "meta_mean_anomaly": 128.8342,
        "meta_ephemeris_type": 0,
        "meta_classification_type": "U",
        "meta_norad_cat_id": 41825,
        "meta_element_set_no": 999,
        "meta_rev_at_epoch": 47297,
        "meta_bstar": 0.002021998,
        "meta_mean_motion_dot": 4.772e-05,
        "meta_mean_motion_ddot": 0,
        "tle_line1": "1 41825U 99025EYC 25343.14742349  .00004772  00000+0  20220-2 0  9993",
        "tle_line2": "2 41825  98.7437  52.1920 0055549 230.7898 128.8342 14.25046246472975"
      },
      "geometry": {
        "type": "Point",
        "coordinates": [
          55.250800848637816,
          -15.838590175964507
        ]
      }
    },
    {
      "type": "Feature",
      "properties": {
        "norad_id": 41826,
        "name": "FENGYUN 1C DEB",
        "group": "fengyun-1c-debris",
        "lat": -29.144210284364437,
        "lon": 54.438654474301586,
        "alt_km": 824.3245112891236,
        "timestamp": "2025-12-09T16:56:36.865096+00:00",
        "meta_object_name": "FENGYUN 1C DEB",
        "meta_object_id": "1999-025EYD",
        "meta_epoch": "2025-12-09T10:20:08.763072",
        "meta_mean_motion": 14.23714293,
        "meta_eccentricity": 0.0055476,
        "meta_inclination": 98.7334,
        "meta_ra_of_asc_node": 49.2483,
        "meta_arg_of_pericenter": 232.8884,
        "meta_mean_anomaly": 126.7217,
        "meta_ephemeris_type": 0,
        "meta_classification_type": "U",
        "meta_norad_cat_id": 41826,
        "meta_element_set_no": 999,
        "meta_rev_at_epoch": 47313,
        "meta_bstar": 0.002337,
        "meta_mean_motion_dot": 5.38e-05,
        "meta_mean_motion_ddot": 0,
        "tle_line1": "1 41826U 99025EYD 25343.43065698  .00005380  00000+0  23370-2 0  9996",
        "tle_line2": "2 41826  98.7334  49.2483 0055476 232.8884 126.7217 14.23714293473139"
      },
      "geometry": {
        "type": "Point",
        "coordinates": [
          54.438654474301586,
          -29.144210284364437
        ]
      }
    },
    {
      "type": "Feature",
      "properties": {
        "norad_id": 41827,
        "name": "FENGYUN 1C DEB",
        "group": "fengyun-1c-debris",
        "lat": -28.17302684740574,
        "lon": -131.8046860646494,
        "alt_km": 772.8991660005686,
        "timestamp": "2025-12-09T16:56:36.865106+00:00",
        "meta_object_name": "FENGYUN 1C DEB",
        "meta_object_id": "1999-025EYE",
        "meta_epoch": "2025-12-09T10:54:40.000896",
        "meta_mean_motion": 14.25232201,
        "meta_eccentricity": 0.0058114,
        "meta_inclination": 98.7426,
        "meta_ra_of_asc_node": 52.6724,
        "meta_arg_of_pericenter": 222.9596,
        "meta_mean_anomaly": 136.7038,
        "meta_ephemeris_type": 0,
        "meta_classification_type": "U",
        "meta_norad_cat_id": 41827,
        "meta_element_set_no": 999,
        "meta_rev_at_epoch": 47284,
        "meta_bstar": 0.0024797,
        "meta_mean_motion_dot": 5.893e-05,
        "meta_mean_motion_ddot": 0,
        "tle_line1": "1 41827U 99025EYE 25343.45462964  .00005893  00000+0  24797-2 0  9999",
        "tle_line2": "2 41827  98.7426  52.6724 0058114 222.9596 136.7038 14.25232201472845"
      },
      "geometry": {
        "type": "Point",
        "coordinates": [
          -131.8046860646494,
          -28.17302684740574
        ]
      }
    }
  ]
}